[{"OBJECT_NAME":"STARLINK-31014","OBJECT_ID":"2023-192H","EPOCH":"2025-08-29T06:25:17.785344","MEAN_MOTION":15.30181708,"ECCENTRICITY":0.00011794,"INCLINATION":53.1602,"RA_OF_ASC_NODE":236.5958,"ARG_OF_PERICENTER":72.3952,"MEAN_ANOMALY":287.7177,"EPHEMERIS_TYPE":0,"CLASSIFICATION_TYPE":"U","NORAD_CAT_ID":58538,"ELEMENT_SET_NO":999,"REV_AT_EPOCH":9652,"BSTAR":9.468198e-6,"MEAN_MOTION_DOT":-7.9e-7,"MEAN_MOTION_DDOT":0},{"OBJECT_NAME":"STARLINK-31055","OBJECT_ID":"2023-192J","EPOCH":"2025-08-29T06:29:51.256032","MEAN_MOTION":15.30184645,"ECCENTRICITY":0.00011456,"INCLINATION":53.1601,"RA_OF_ASC_NODE":236.6144,"ARG_OF_PERICENTER":79.8628,"MEAN_ANOMALY":280.2502,"EPHEMERIS_TYPE":0,"CLASSIFICATION_TYPE":"U","NORAD_CAT_ID":58539,"ELEMENT_SET_NO":999,"REV_AT_EPOCH":9652,"BSTAR":-8.07038e-7,"MEAN_MOTION_DOT":-3.83e-6,"MEAN_MOTION_DDOT":0},{"OBJECT_NAME":"STARLINK-31019","OBJECT_ID":"2023-192K","EPOCH":"2025-08-29T06:16:10.740288","MEAN_MOTION":15.30170586,"ECCENTRICITY":0.00015243,"INCLINATION":53.1588,"RA_OF_ASC_NODE":236.5538,"ARG_OF_PERICENTER":88.0557,"MEAN_ANOMALY":272.0618,"EPHEMERIS_TYPE":0,"CLASSIFICATION_TYPE":"U","NORAD_CAT_ID":58540,"ELEMENT_SET_NO":999,"REV_AT_EPOCH":9652,"BSTAR":9.7101661e-5,"MEAN_MOTION_DOT":2.515e-5,"MEAN_MOTION_DDOT":0},{"OBJECT_NAME":"STARLINK-31045","OBJECT_ID":"2023-192L","EPOCH":"2025-08-27T12:12:10.270080","MEAN_MOTION":15.3017812,"ECCENTRICITY":0.0001304,"INCLINATION":53.1612,"RA_OF_ASC_NODE":321.5432,"ARG_OF_PERICENTER":93.0637,"MEAN_ANOMALY":267.0513,"EPHEMERIS_TYPE":0,"CLASSIFICATION_TYPE":"U","NORAD_CAT_ID":58541,"ELEMENT_SET_NO":999,"REV_AT_EPOCH":9516,"BSTAR":2.9262333e-5,"MEAN_MOTION_DOT":5.07e-6,"MEAN_MOTION_DDOT":0},{"OBJECT_NAME":"STARLINK-31030","OBJECT_ID":"2023-192M","EPOCH":"2025-08-29T06:34:25.501728","MEAN_MOTION":15.3019218,"ECCENTRICITY":0.00011671,"INCLINATION":53.1588,"RA_OF_ASC_NODE":236.6298,"ARG_OF_PERICENTER":74.3666,"MEAN_ANOMALY":285.7463,"EPHEMERIS_TYPE":0,"CLASSIFICATION_TYPE":"U","NORAD_CAT_ID":58542,"ELEMENT_SET_NO":999,"REV_AT_EPOCH":9652,"BSTAR":5.2767623e-5,"MEAN_MOTION_DOT":1.204e-5,"MEAN_MOTION_DDOT":0},{"OBJECT_NAME":"STARLINK-31049","OBJECT_ID":"2023-192N","EPOCH":"2025-08-29T06:38:57.855264","MEAN_MOTION":15.30198838,"ECCENTRICITY":0.00018023,"INCLINATION":53.161,"RA_OF_ASC_NODE":236.6541,"ARG_OF_PERICENTER":88.632,"MEAN_ANOMALY":271.4887,"EPHEMERIS_TYPE":0,"CLASSIFICATION_TYPE":"U","NORAD_CAT_ID":58543,"ELEMENT_SET_NO":999,"REV_AT_EPOCH":9652,"BSTAR":5.1106627e-5,"MEAN_MOTION_DOT":1.154e-5,"MEAN_MOTION_DDOT":0},{"OBJECT_NAME":"STARLINK-31048","OBJECT_ID":"2023-192P","EPOCH":"2025-08-29T05:42:43.742592","MEAN_MOTION":15.30193918,"ECCENTRICITY":0.00012541,"INCLINATION":53.159,"RA_OF_ASC_NODE":236.3677,"ARG_OF_PERICENTER":103.0096,"MEAN_ANOMALY":257.1045,"EPHEMERIS_TYPE":0,"CLASSIFICATION_TYPE":"U","NORAD_CAT_ID":58544,"ELEMENT_SET_NO":999,"REV_AT_EPOCH":9652,"BSTAR":3.4701395e-5,"MEAN_MOTION_DOT":6.69e-6,"MEAN_MOTION_DDOT":0},{"OBJECT_NAME":"STARLINK-31057","OBJECT_ID":"2023-192Q","EPOCH":"2025-08-29T06:43:31.838304","MEAN_MOTION":15.30187568,"ECCENTRICITY":0.0001372,"INCLINATION":53.1593,"RA_OF_ASC_NODE":236.6714,"ARG_OF_PERICENTER":83.9593,"MEAN_ANOMALY":276.1565,"EPHEMERIS_TYPE":0,"CLASSIFICATION_TYPE":"U","NORAD_CAT_ID":58545,"ELEMENT_SET_NO":999,"REV_AT_EPOCH":9652,"BSTAR":3.5403337e-5,"MEAN_MOTION_DOT":6.89e-6,"MEAN_MOTION_DDOT":0},{"OBJECT_NAME":"STARLINK-31050","OBJECT_ID":"2023-192R","EPOCH":"2025-08-29T06:48:05.366016","MEAN_MOTION":15.30195798,"ECCENTRICITY":7.927e-5,"INCLINATION":53.1591,"RA_OF_ASC_NODE":236.6916,"ARG_OF_PERICENTER":78.5322,"MEAN_ANOMALY":281.5768,"EPHEMERIS_TYPE":0,"CLASSIFICATION_TYPE":"U","NORAD_CAT_ID":58546,"ELEMENT_SET_NO":999,"REV_AT_EPOCH":9652,"BSTAR":0.0001240772,"MEAN_MOTION_DOT":3.317e-5,"MEAN_MOTION_DDOT":0},{"OBJECT_NAME":"STARLINK-31063","OBJECT_ID":"2023-192S","EPOCH":"2025-08-29T05:27:40.414176","MEAN_MOTION":15.30183152,"ECCENTRICITY":0.00018729,"INCLINATION":53.1617,"RA_OF_ASC_NODE":226.3681,"ARG_OF_PERICENTER":106.0094,"MEAN_ANOMALY":254.1113,"EPHEMERIS_TYPE":0,"CLASSIFICATION_TYPE":"U","NORAD_CAT_ID":58547,"ELEMENT_SET_NO":999,"REV_AT_EPOCH":9666,"BSTAR":-0.00010712331,"MEAN_MOTION_DOT":-3.529e-5,"MEAN_MOTION_DDOT":0},{"OBJECT_NAME":"STARLINK-31016","OBJECT_ID":"2023-192T","EPOCH":"2025-08-29T05:47:17.587392","MEAN_MOTION":15.30185922,"ECCENTRICITY":0.00012185,"INCLINATION":53.1607,"RA_OF_ASC_NODE":236.3871,"ARG_OF_PERICENTER":96.4072,"MEAN_ANOMALY":263.7067,"EPHEMERIS_TYPE":0,"CLASSIFICATION_TYPE":"U","NORAD_CAT_ID":58548,"ELEMENT_SET_NO":999,"REV_AT_EPOCH":9652,"BSTAR":3.201438e-6,"MEAN_MOTION_DOT":-2.64e-6,"MEAN_MOTION_DDOT":0},{"OBJECT_NAME":"STARLINK-31053","OBJECT_ID":"2023-192U","EPOCH":"2025-08-29T06:52:38.488512","MEAN_MOTION":15.30194647,"ECCENTRICITY":0.00011346,"INCLINATION":53.1577,"RA_OF_ASC_NODE":236.7108,"ARG_OF_PERICENTER":88.906,"MEAN_ANOMALY":271.2071,"EPHEMERIS_TYPE":0,"CLASSIFICATION_TYPE":"U","NORAD_CAT_ID":58549,"ELEMENT_SET_NO":999,"REV_AT_EPOCH":9652,"BSTAR":1.6162545e-5,"MEAN_MOTION_DOT":1.2e-6,"MEAN_MOTION_DDOT":0},{"OBJECT_NAME":"STARLINK-31056","OBJECT_ID":"2023-192V","EPOCH":"2025-08-29T05:51:51.430464","MEAN_MOTION":15.30192041,"ECCENTRICITY":0.00013363,"INCLINATION":53.1597,"RA_OF_ASC_NODE":236.4528,"ARG_OF_PERICENTER":87.5705,"MEAN_ANOMALY":272.5449,"EPHEMERIS_TYPE":0,"CLASSIFICATION_TYPE":"U","NORAD_CAT_ID":58550,"ELEMENT_SET_NO":999,"REV_AT_EPOCH":9652,"BSTAR":1.4528202e-5,"MEAN_MOTION_DOT":7.1e-7,"MEAN_MOTION_DDOT":0},{"OBJECT_NAME":"STARLINK-30999","OBJECT_ID":"2023-192W","EPOCH":"2025-08-29T06:28:25.485024","MEAN_MOTION":15.30205019,"ECCENTRICITY":0.00015572,"INCLINATION":53.1591,"RA_OF_ASC_NODE":226.5487,"ARG_OF_PERICENTER":94.7156,"MEAN_ANOMALY":265.4023,"EPHEMERIS_TYPE":0,"CLASSIFICATION_TYPE":"U","NORAD_CAT_ID":58551,"ELEMENT_SET_NO":999,"REV_AT_EPOCH":9666,"BSTAR":0.00010459009,"MEAN_MOTION_DOT":2.74e-5,"MEAN_MOTION_DDOT":0},{"OBJECT_NAME":"STARLINK-31046","OBJECT_ID":"2023-192X","EPOCH":"2025-08-29T05:29:14.061408","MEAN_MOTION":15.30184581,"ECCENTRICITY":0.00011453,"INCLINATION":53.1588,"RA_OF_ASC_NODE":237.0605,"ARG_OF_PERICENTER":84.7638,"MEAN_ANOMALY":275.3493,"EPHEMERIS_TYPE":0,"CLASSIFICATION_TYPE":"U","NORAD_CAT_ID":58552,"ELEMENT_SET_NO":999,"REV_AT_EPOCH":9651,"BSTAR":-8.022354e-6,"MEAN_MOTION_DOT":-5.96e-6,"MEAN_MOTION_DDOT":0},{"OBJECT_NAME":"STARLINK-31044","OBJECT_ID":"2023-200A","EPOCH":"2025-08-29T01:42:16.019136","MEAN_MOTION":15.02535392,"ECCENTRICITY":9.89e-5,"INCLINATION":43.0036,"RA_OF_ASC_NODE":136.5135,"ARG_OF_PERICENTER":237.6843,"MEAN_ANOMALY":122.3904,"EPHEMERIS_TYPE":0,"CLASSIFICATION_TYPE":"U","NORAD_CAT_ID":58589,"ELEMENT_SET_NO":999,"REV_AT_EPOCH":9462,"BSTAR":1.9115515e-5,"MEAN_MOTION_DOT":5.5e-7,"MEAN_MOTION_DDOT":0}]
