STARLINK-31014          
1 58538U 23192H   25241.26756696 -.00000079  00000+0  94682-5 0  9997
2 58538  53.1602 236.5958 0001179  72.3952 287.7177 15.30181708 96527
STARLINK-31055          
1 58539U 23192J   25241.27073213 -.00000383  00000+0 -80704-6 0  9996
2 58539  53.1601 236.6144 0001145  79.8628 280.2502 15.30184645 96523
STARLINK-31019          
1 58540U 23192K   25241.26123542  .00002515  00000+0  97102-4 0  9993
2 58540  53.1588 236.5538 0001524  88.0557 272.0618 15.30170586 96525
STARLINK-31045          
1 58541U 23192L   25239.50845220  .00000507  00000+0  29262-4 0  9993
2 58541  53.1612 321.5432 0001304  93.0637 267.0513 15.30178120 95162
STARLINK-31030          
1 58542U 23192M   25241.27390627  .00001204  00000+0  52768-4 0  9999
2 58542  53.1588 236.6298 0001167  74.3666 285.7463 15.30192180 96526
STARLINK-31049          
1 58543U 23192N   25241.27705851  .00001154  00000+0  51107-4 0  9999
2 58543  53.1610 236.6541 0001802  88.6320 271.4887 15.30198838 96523
STARLINK-31048          
1 58544U 23192P   25241.23800628  .00000669  00000+0  34701-4 0  9995
2 58544  53.1590 236.3677 0001254 103.0096 257.1045 15.30193918 96522
STARLINK-31057          
1 58545U 23192Q   25241.28022961  .00000689  00000+0  35403-4 0  9999
2 58545  53.1593 236.6714 0001372  83.9593 276.1565 15.30187568 96522
STARLINK-31050          
1 58546U 23192R   25241.28339544  .00003317  00000+0  12408-3 0  9998
2 58546  53.1591 236.6916 0000792  78.5322 281.5768 15.30195798 96529
STARLINK-31063          
1 58547U 23192S   25241.22755109 -.00003529  00000+0 -10712-3 0  9995
2 58547  53.1617 226.3681 0001872 106.0094 254.1113 15.30183152 96663
STARLINK-31016          
1 58548U 23192T   25241.24117578 -.00000264  00000+0  32014-5 0  9993
2 58548  53.1607 236.3871 0001218  96.4072 263.7067 15.30185922 96523
STARLINK-31053          
1 58549U 23192U   25241.28655658  .00000120  00000+0  16163-4 0  9990
2 58549  53.1577 236.7108 0001134  88.9060 271.2071 15.30194647 96520
STARLINK-31056          
1 58550U 23192V   25241.24434526  .00000071  00000+0  14528-4 0  9995
2 58550  53.1597 236.4528 0001336  87.5705 272.5449 15.30192041 96521
STARLINK-30999          
1 58551U 23192W   25241.26973941  .00002740  00000+0  10459-3 0  9990
2 58551  53.1591 226.5487 0001557  94.7156 265.4023 15.30205019 96669
STARLINK-31046          
1 58552U 23192X   25241.22863497 -.00000596  00000+0 -80224-5 0  9999
2 58552  53.1588 237.0605 0001145  84.7638 275.3493 15.30184581 96517
STARLINK-31044          
1 58589U 23200A   25241.07101874  .00000055  00000+0  19116-4 0  9995
2 58589  43.0036 136.5135 0000989 237.6843 122.3904 15.02535392 94623
